[Satellite]
VERSION=1.1
NAME=CZ-6A DEB
NICKNAME=CZ-6A DEB
TLE1=1 54497U 22151HZ  22342.29285799  .00000692  00000+0  42765-3 0  9997
TLE2=2 54497  98.8147 346.7539 0050057   6.5024 353.6785 14.07970081  3141
STATUS=0
